{
  "type": "FeatureCollection",
  "features": [
    {
      "type": "Feature",
      "properties": {
        "norad_id": 34722,
        "name": "COSMOS 2251 DEB",
        "group": "cosmos-2251-debris",
        "lat": -3.0199998089522904,
        "lon": -19.73914429363714,
        "alt_km": 853.3105033892107,
        "timestamp": "2025-12-09T21:34:11.804510+00:00",
        "meta_object_name": "COSMOS 2251 DEB",
        "meta_object_id": "1993-036YQ",
        "meta_epoch": "2025-12-09T10:24:51.303168",
        "meta_mean_motion": 14.11918789,
        "meta_eccentricity": 0.01672791,
        "meta_inclination": 73.8728,
        "meta_ra_of_asc_node": 341.9641,
        "meta_arg_of_pericenter": 268.0911,
        "meta_mean_anomaly": 245.2383,
        "meta_ephemeris_type": 0,
        "meta_classification_type": "U",
        "meta_norad_cat_id": 34722,
        "meta_element_set_no": 999,
        "meta_rev_at_epoch": 86198,
        "meta_bstar": 0.0014193204,
        "meta_mean_motion_dot": 2.934e-05,
        "meta_mean_motion_ddot": 0,
        "tle_line1": "1 34722U 93036YQ  25343.43392712  .00002934  00000+0  14193-2 0  9994",
        "tle_line2": "2 34722  73.8728 341.9641 0167279 268.0911 245.2383 14.11918789861980"
      },
      "geometry": {
        "type": "Point",
        "coordinates": [
          -19.73914429363714,
          -3.0199998089522904
        ]
      }
    },
    {
      "type": "Feature",
      "properties": {
        "norad_id": 34726,
        "name": "COSMOS 2251 DEB",
        "group": "cosmos-2251-debris",
        "lat": -70.0741090744795,
        "lon": -136.06942119408043,
        "alt_km": 714.0421552134694,
        "timestamp": "2025-12-09T21:34:11.804520+00:00",
        "meta_object_name": "COSMOS 2251 DEB",
        "meta_object_id": "1993-036YU",
        "meta_epoch": "2025-12-09T07:14:03.297984",
        "meta_mean_motion": 14.59462245,
        "meta_eccentricity": 0.0042153,
        "meta_inclination": 74.0291,
        "meta_ra_of_asc_node": 352.8826,
        "meta_arg_of_pericenter": 144.7976,
        "meta_mean_anomaly": 215.5988,
        "meta_ephemeris_type": 0,
        "meta_classification_type": "U",
        "meta_norad_cat_id": 34726,
        "meta_element_set_no": 999,
        "meta_rev_at_epoch": 88452,
        "meta_bstar": 0.00064817,
        "meta_mean_motion_dot": 3.084e-05,
        "meta_mean_motion_ddot": 0,
        "tle_line1": "1 34726U 93036YU  25343.30142706  .00003084  00000+0  64817-3 0  9996",
        "tle_line2": "2 34726  74.0291 352.8826 0042153 144.7976 215.5988 14.59462245884521"
      },
      "geometry": {
        "type": "Point",
        "coordinates": [
          -136.06942119408043,
          -70.0741090744795
        ]
      }
    },
    {
      "type": "Feature",
      "properties": {
        "norad_id": 34728,
        "name": "COSMOS 2251 DEB",
        "group": "cosmos-2251-debris",
        "lat": 18.34227147668044,
        "lon": -97.25576259241427,
        "alt_km": 635.2858487747671,
        "timestamp": "2025-12-09T21:34:11.804531+00:00",
        "meta_object_name": "COSMOS 2251 DEB",
        "meta_object_id": "1993-036YW",
        "meta_epoch": "2025-12-09T11:41:21.069888",
        "meta_mean_motion": 14.70794927,
        "meta_eccentricity": 0.00409671,
        "meta_inclination": 74.0171,
        "meta_ra_of_asc_node": 258.0914,
        "meta_arg_of_pericenter": 56.6298,
        "meta_mean_anomaly": 303.8783,
        "meta_ephemeris_type": 0,
        "meta_classification_type": "U",
        "meta_norad_cat_id": 34728,
        "meta_element_set_no": 999,
        "meta_rev_at_epoch": 88752,
        "meta_bstar": 0.0012390282,
        "meta_mean_motion_dot": 7.642e-05,
        "meta_mean_motion_ddot": 0,
        "tle_line1": "1 34728U 93036YW  25343.48704942  .00007642  00000+0  12390-2 0  9995",
        "tle_line2": "2 34728  74.0171 258.0914 0040967  56.6298 303.8783 14.70794927887529"
      },
      "geometry": {
        "type": "Point",
        "coordinates": [
          -97.25576259241427,
          18.34227147668044
        ]
      }
    },
    {
      "type": "Feature",
      "properties": {
        "norad_id": 34729,
        "name": "COSMOS 2251 DEB",
        "group": "cosmos-2251-debris",
        "lat": -73.94310584547826,
        "lon": -80.65354305393332,
        "alt_km": 634.8245901549444,
        "timestamp": "2025-12-09T21:34:11.804541+00:00",
        "meta_object_name": "COSMOS 2251 DEB",
        "meta_object_id": "1993-036YX",
        "meta_epoch": "2025-12-09T02:47:26.996352",
        "meta_mean_motion": 14.82631186,
        "meta_eccentricity": 0.00118898,
        "meta_inclination": 74.0182,
        "meta_ra_of_asc_node": 5.6061,
        "meta_arg_of_pericenter": 126.9078,
        "meta_mean_anomaly": 289.8188,
        "meta_ephemeris_type": 0,
        "meta_classification_type": "U",
        "meta_norad_cat_id": 34729,
        "meta_element_set_no": 999,
        "meta_rev_at_epoch": 88404,
        "meta_bstar": 0.0021138717,
        "meta_mean_motion_dot": 0.0001706,
        "meta_mean_motion_ddot": 0,
        "tle_line1": "1 34729U 93036YX  25343.11628468  .00017060  00000+0  21139-2 0  9990",
        "tle_line2": "2 34729  74.0182   5.6061 0011889 126.9078 289.8188 14.82631186884045"
      },
      "geometry": {
        "type": "Point",
        "coordinates": [
          -80.65354305393332,
          -73.94310584547826
        ]
      }
    },
    {
      "type": "Feature",
      "properties": {
        "norad_id": 34732,
        "name": "COSMOS 2251 DEB",
        "group": "cosmos-2251-debris",
        "lat": 39.00054579888323,
        "lon": -94.9006186243781,
        "alt_km": 741.3852081081741,
        "timestamp": "2025-12-09T21:34:11.804551+00:00",
        "meta_object_name": "COSMOS 2251 DEB",
        "meta_object_id": "1993-036ZA",
        "meta_epoch": "2025-12-09T09:34:54.065568",
        "meta_mean_motion": 14.47295119,
        "meta_eccentricity": 0.00404501,
        "meta_inclination": 74.045,
        "meta_ra_of_asc_node": 99.4278,
        "meta_arg_of_pericenter": 251.0632,
        "meta_mean_anomaly": 166.8756,
        "meta_ephemeris_type": 0,
        "meta_classification_type": "U",
        "meta_norad_cat_id": 34732,
        "meta_element_set_no": 999,
        "meta_rev_at_epoch": 88095,
        "meta_bstar": 0.00029203423,
        "meta_mean_motion_dot": 1.052e-05,
        "meta_mean_motion_ddot": 0,
        "tle_line1": "1 34732U 93036ZA  25343.39923687  .00001052  00000+0  29203-3 0  9990",
        "tle_line2": "2 34732  74.0450  99.4278 0040450 251.0632 166.8756 14.47295119880954"
      },
      "geometry": {
        "type": "Point",
        "coordinates": [
          -94.9006186243781,
          39.00054579888323
        ]
      }
    },
    {
      "type": "Feature",
      "properties": {
        "norad_id": 34736,
        "name": "COSMOS 2251 DEB",
        "group": "cosmos-2251-debris",
        "lat": -23.184784750709394,
        "lon": 35.381132142635636,
        "alt_km": 426.413266495676,
        "timestamp": "2025-12-09T21:34:11.804562+00:00",
        "meta_object_name": "COSMOS 2251 DEB",
        "meta_object_id": "1993-036ZE",
        "meta_epoch": "2025-12-09T12:20:46.007232",
        "meta_mean_motion": 15.44275605,
        "meta_eccentricity": 0.00170833,
        "meta_inclination": 74.0021,
        "meta_ra_of_asc_node": 43.2769,
        "meta_arg_of_pericenter": 349.4162,
        "meta_mean_anomaly": 10.6686,
        "meta_ephemeris_type": 0,
        "meta_classification_type": "U",
        "meta_norad_cat_id": 34736,
        "meta_element_set_no": 999,
        "meta_rev_at_epoch": 88398,
        "meta_bstar": 0.0087794476,
        "meta_mean_motion_dot": 0.00428968,
        "meta_mean_motion_ddot": 0,
        "tle_line1": "1 34736U 93036ZE  25343.51442138  .00428968  00000+0  87794-2 0  9992",
        "tle_line2": "2 34736  74.0021  43.2769 0017083 349.4162  10.6686 15.44275605883980"
      },
      "geometry": {
        "type": "Point",
        "coordinates": [
          35.381132142635636,
          -23.184784750709394
        ]
      }
    },
    {
      "type": "Feature",
      "properties": {
        "norad_id": 34738,
        "name": "COSMOS 2251 DEB",
        "group": "cosmos-2251-debris",
        "lat": -1.4974308207745515,
        "lon": -30.994656044942595,
        "alt_km": 754.1085283463372,
        "timestamp": "2025-12-09T21:34:11.804573+00:00",
        "meta_object_name": "COSMOS 2251 DEB",
        "meta_object_id": "1993-036ZG",
        "meta_epoch": "2025-12-09T12:41:33.004608",
        "meta_mean_motion": 14.46291371,
        "meta_eccentricity": 0.00473111,
        "meta_inclination": 74.0141,
        "meta_ra_of_asc_node": 149.2671,
        "meta_arg_of_pericenter": 296.1263,
        "meta_mean_anomaly": 120.6858,
        "meta_ephemeris_type": 0,
        "meta_classification_type": "U",
        "meta_norad_cat_id": 34738,
        "meta_element_set_no": 999,
        "meta_rev_at_epoch": 87812,
        "meta_bstar": 0.00056224622,
        "meta_mean_motion_dot": 2.015e-05,
        "meta_mean_motion_ddot": 0,
        "tle_line1": "1 34738U 93036ZG  25343.52885422  .00002015  00000+0  56225-3 0  9999",
        "tle_line2": "2 34738  74.0141 149.2671 0047311 296.1263 120.6858 14.46291371878123"
      },
      "geometry": {
        "type": "Point",
        "coordinates": [
          -30.994656044942595,
          -1.4974308207745515
        ]
      }
    }
  ]
}